$$SOE
2459580.500000000, A.D. 2022-Jan-01 00:00:00.0000, -3.700651159120953E+08, 2.420980259597464E+08, -6.586497827572823E+05,
2459587.500000000, A.D. 2022-Jan-08 00:00:00.0000, -3.761649345070699E+08, 2.338338758870691E+08, -8.635394068651199E+05,
2459594.500000000, A.D. 2022-Jan-15 00:00:00.0000, -3.820546563659157E+08, 2.254390896419196E+08, -1.067945580346838E+06,
2459601.500000000, A.D. 2022-Jan-22 00:00:00.0000, -3.877319793472612E+08, 2.169189416089717E+08, -1.271757250186160E+06,
2459608.500000000, A.D. 2022-Jan-29 00:00:00.0000, -3.931947268596060E+08, 2.082787220678115E+08, -1.474864574847698E+06,
2459615.500000000, A.D. 2022-Feb-05 00:00:00.0000, -3.984408485574453E+08, 1.995237340379812E+08, -1.677158798113748E+06,
2459622.500000000, A.D. 2022-Feb-12 00:00:00.0000, -4.034684188514409E+08, 1.906592891671075E+08, -1.878532406165153E+06,
2459629.500000000, A.D. 2022-Feb-19 00:00:00.0000, -4.082756345579941E+08, 1.816907050241509E+08, -2.078879252599776E+06,
2459636.500000000, A.D. 2022-Feb-26 00:00:00.0000, -4.128608130045123E+08, 1.726233030688644E+08, -2.278094590503216E+06,
2459643.500000000, A.D. 2022-Mar-05 00:00:00.0000, -4.172223904367366E+08, 1.634624066766191E+08, -2.476075077075049E+06,
2459650.500000000, A.D. 2022-Mar-12 00:00:00.0000, -4.213589205115068E+08, 1.542133391495993E+08, -2.672718777023725E+06,
2459657.500000000, A.D. 2022-Mar-19 00:00:00.0000, -4.252690728087435E+08, 1.448814217396795E+08, -2.867925169475354E+06,
2459664.500000000, A.D. 2022-Mar-26 00:00:00.0000, -4.289516313444244E+08, 1.354719716746463E+08, -3.061595161403500E+06,
2459671.500000000, A.D. 2022-Apr-02 00:00:00.0000, -4.324054930201911E+08, 1.259903001295365E+08, -3.253631118737787E+06,
2459678.500000000, A.D. 2022-Apr-09 00:00:00.0000, -4.356296657402793E+08, 1.164417101453800E+08, -3.443936939986147E+06,
2459685.500000000, A.D. 2022-Apr-16 00:00:00.0000, -4.386232658407217E+08, 1.068314951465903E+08, -3.632418151879512E+06,
2459692.500000000, A.D. 2022-Apr-23 00:00:00.0000, -4.413855161016590E+08, 9.716493913788874E+07, -3.818981822237231E+06,
2459699.500000000, A.D. 2022-Apr-30 00:00:00.0000, -4.439157462161283E+08, 8.744731633227059E+07, -4.003536302305121E+06,
2459706.500000000, A.D. 2022-May-07 00:00:00.0000, -4.462133926553770E+08, 7.768388823468445E+07, -4.185991240983643E+06,
2459713.500000000, A.D. 2022-May-14 00:00:00.0000, -4.482779965406208E+08, 6.787990121721563E+07, -4.366257749951731E+06,
2459720.500000000, A.D. 2022-May-21 00:00:00.0000, -4.501092015520209E+08, 5.804058533984324E+07, -4.544248471317831E+06,
2459727.500000000, A.D. 2022-May-28 00:00:00.0000, -4.517067523560301E+08, 4.817115345387073E+07, -4.719877582446665E+06,
2459734.500000000, A.D. 2022-Jun-04 00:00:00.0000, -4.530704932762499E+08, 3.827680027248527E+07, -4.893060789091764E+06,
2459741.500000000, A.D. 2022-Jun-11 00:00:00.0000, -4.542003670642182E+08, 2.836270140807512E+07, -5.063715319927471E+06,
2459748.500000000, A.D. 2022-Jun-18 00:00:00.0000, -4.550964137320891E+08, 1.843401238677859E+07, -5.231759924902683E+06,
2459755.500000000, A.D. 2022-Jun-25 00:00:00.0000, -4.557587694184032E+08, 8.495867604226036E+06, -5.397114882779731E+06,
2459762.500000000, A.D. 2022-Jul-02 00:00:00.0000, -4.561876651535144E+08, -1.446620846034709E+06, -5.559702035464046E+06,
2459769.500000000, A.D. 2022-Jul-09 00:00:00.0000, -4.563834251348068E+08, -1.138836429712629E+07, -5.719444870361069E+06,
2459776.500000000, A.D. 2022-Jul-16 00:00:00.0000, -4.563464645668905E+08, -2.132429750642155E+07, -5.876268557072796E+06,
2459783.500000000, A.D. 2022-Jul-23 00:00:00.0000, -4.560772892653635E+08, -3.124937745173184E+07, -6.030099730337750E+06,
2459790.500000000, A.D. 2022-Jul-30 00:00:00.0000, -4.555764969418525E+08, -4.115858428334610E+07, -6.180866301019778E+06,
2459797.500000000, A.D. 2022-Aug-06 00:00:00.0000, -4.548447765731120E+08, -5.104692378557797E+07, -6.328497572118443E+06,
2459804.500000000, A.D. 2022-Aug-13 00:00:00.0000, -4.538829066760347E+08, -6.090942859498999E+07, -6.472924358761407E+06,
2459811.500000000, A.D. 2022-Aug-20 00:00:00.0000, -4.526917540564401E+08, -7.074115868201399E+07, -6.614079009087477E+06,
2459818.500000000, A.D. 2022-Aug-27 00:00:00.0000, -4.512722729640107E+08, -8.053720182622406E+07, -6.751895391609073E+06,
2459825.500000000, A.D. 2022-Sep-03 00:00:00.0000, -4.496255044065480E+08, -9.029267419861321E+07, -6.886308880807545E+06,
2459832.500000000, A.D. 2022-Sep-10 00:00:00.0000, -4.477525755339650E+08, -1.000027210293101E+08, -7.017256347206242E+06,
2459839.500000000, A.D. 2022-Sep-17 00:00:00.0000, -4.456546990627289E+08, -1.096625173648706E+08, -7.144676154752009E+06,
2459846.500000000, A.D. 2022-Sep-24 00:00:00.0000, -4.433331726804561E+08, -1.192672689684075E+08, -7.268508175287679E+06,
2459853.500000000, A.D. 2022-Oct-01 00:00:00.0000, -4.407893781907923E+08, -1.288122133869079E+08, -7.388693844107203E+06,
2459860.500000000, A.D. 2022-Oct-08 00:00:00.0000, -4.380247799909047E+08, -1.382926206651134E+08, -7.505176251448125E+06,
2459867.500000000, A.D. 2022-Oct-15 00:00:00.0000, -4.350409238118389E+08, -1.477037925078455E+08, -7.617900086580865E+06,
2459874.500000000, A.D. 2022-Oct-22 00:00:00.0000, -4.318394379009890E+08, -1.570410615764652E+08, -7.726811372181997E+06,
2459881.500000000, A.D. 2022-Oct-29 00:00:00.0000, -4.284220341475350E+08, -1.662997935157747E+08, -7.831857430339456E+06,
2459888.500000000, A.D. 2022-Nov-05 00:00:00.0000, -4.247905070504856E+08, -1.754753889728017E+08, -7.932987048947379E+06,
2459895.500000000, A.D. 2022-Nov-12 00:00:00.0000, -4.209467324923831E+08, -1.845632843429424E+08, -8.030150564886414E+06,
2459902.500000000, A.D. 2022-Nov-19 00:00:00.0000, -4.168926670372798E+08, -1.935589522011722E+08, -8.123299876355335E+06,
2459909.500000000, A.D. 2022-Nov-26 00:00:00.0000, -4.126303474917228E+08, -2.024579018190794E+08, -8.212388441339642E+06,
2459916.500000000, A.D. 2022-Dec-03 00:00:00.0000, -4.081618905640099E+08, -2.112556797814680E+08, -8.297371278680772E+06,
2459923.500000000, A.D. 2022-Dec-10 00:00:00.0000, -4.034894925764340E+08, -2.199478706851233E+08, -8.378204974457264E+06,
2459930.500000000, A.D. 2022-Dec-17 00:00:00.0000, -3.986154292049054E+08, -2.285300979459158E+08, -8.454847697925165E+06,
2459937.500000000, A.D. 2022-Dec-24 00:00:00.0000, -3.935420551351275E+08, -2.369980247815400E+08, -8.527259242338255E+06,
2459944.500000000, A.D. 2022-Dec-31 00:00:00.0000, -3.882718032761202E+08, -2.453473552640483E+08, -8.595401114567325E+06,
2459951.500000000, A.D. 2023-Jan-07 00:00:00.0000, -3.828071834066318E+08, -2.535738344813976E+08, -8.659236606019780E+06,
2459958.500000000, A.D. 2023-Jan-14 00:00:00.0000, -3.771507822192609E+08, -2.616732473128681E+08, -8.718730623749346E+06,
2459965.500000000, A.D. 2023-Jan-21 00:00:00.0000, -3.713052654052073E+08, -2.696414189935840E+08, -8.773849481930375E+06,
2459972.500000000, A.D. 2023-Jan-28 00:00:00.0000, -3.652733781113836E+08, -2.774742176666478E+08, -8.824561006176218E+06,
2459979.500000000, A.D. 2023-Feb-04 00:00:00.0000, -3.590579439780589E+08, -2.851675558967531E+08, -8.870834684000611E+06,
2459986.500000000, A.D. 2023-Feb-11 00:00:00.0000, -3.526618645503181E+08, -2.927173913395487E+08, -8.912641712333322E+06,
2459993.500000000, A.D. 2023-Feb-18 00:00:00.0000, -3.460881191239269E+08, -3.001197273911530E+08, -8.949955003419355E+06,
2460000.500000000, A.D. 2023-Feb-25 00:00:00.0000, -3.393397647605307E+08, -3.073706139816819E+08, -8.982749186385065E+06,
2460007.500000000, A.D. 2023-Mar-04 00:00:00.0000, -3.324199363683927E+08, -3.144661484962361E+08, -9.011000612250522E+06,
2460014.500000000, A.D. 2023-Mar-11 00:00:00.0000, -3.253318468186540E+08, -3.214024768247271E+08, -9.034687364815906E+06,
2460021.500000000, A.D. 2023-Mar-18 00:00:00.0000, -3.180787870483801E+08, -3.281757945915607E+08, -9.053789285560593E+06,
2460028.500000000, A.D. 2023-Mar-25 00:00:00.0000, -3.106641259451611E+08, -3.347823486138527E+08, -9.068288034818709E+06,
2460035.500000000, A.D. 2023-Apr-01 00:00:00.0000, -3.030913095866997E+08, -3.412184381961911E+08, -9.078167195778370E+06,
2460042.500000000, A.D. 2023-Apr-08 00:00:00.0000, -2.953638604484594E+08, -3.474804150380736E+08, -9.083412264514700E+06,
2460049.500000000, A.D. 2023-Apr-15 00:00:00.0000, -2.874853789134794E+08, -3.535646828612464E+08, -9.084010401943684E+06,
2460056.500000000, A.D. 2023-Apr-22 00:00:00.0000, -2.794595452725853E+08, -3.594676998111098E+08, -9.079950363074660E+06,
2460063.500000000, A.D. 2023-Apr-29 00:00:00.0000, -2.712901194786515E+08, -3.651859813819259E+08, -9.071222670358032E+06,
2460070.500000000, A.D. 2023-May-06 00:00:00.0000, -2.629809404136973E+08, -3.707161020858078E+08, -9.057819724055231E+06,
2460077.500000000, A.D. 2023-May-13 00:00:00.0000, -2.545359256429989E+08, -3.760546967590983E+08, -9.039735833035201E+06,
2460084.500000000, A.D. 2023-May-20 00:00:00.0000, -2.459590714185426E+08, -3.811984619974034E+08, -9.016967227735966E+06,
2460091.500000000, A.D. 2023-May-27 00:00:00.0000, -2.372544527344516E+08, -3.861441577497398E+08, -8.989512075712860E+06,
2460098.500000000, A.D. 2023-Jun-03 00:00:00.0000, -2.284262233732758E+08, -3.908886090477650E+08, -8.957370503264308E+06,
2460105.500000000, A.D. 2023-Jun-10 00:00:00.0000, -2.194786159165434E+08, -3.954287078860828E+08, -8.920544626721948E+06,
2460112.500000000, A.D. 2023-Jun-17 00:00:00.0000, -2.104159416281962E+08, -3.997614153154807E+08, -8.879038606675237E+06,
2460119.500000000, A.D. 2023-Jun-24 00:00:00.0000, -2.012425898885893E+08, -4.038837636942642E+08, -8.832858750032812E+06,
2460126.500000000, A.D. 2023-Jul-01 00:00:00.0000, -1.919630269229845E+08, -4.077928582691947E+08, -8.782013615483582E+06,
2460133.500000000, A.D. 2023-Jul-08 00:00:00.0000, -1.825817954942183E+08, -4.114858772626328E+08, -8.726513901659310E+06,
2460140.500000000, A.D. 2023-Jul-15 00:00:00.0000, -1.731035168304133E+08, -4.149600732950658E+08, -8.666372232331842E+06,
$$EOE